[{"OBJECT_NAME":"JILIN-1 GAOFEN 03D14","OBJECT_ID":"2022-019H","EPOCH":"2026-03-09T05:21:28.150272","MEAN_MOTION":15.79650746,"ECCENTRICITY":0.00041721,"INCLINATION":97.3679,"RA_OF_ASC_NODE":161.4361,"ARG_OF_PERICENTER":150.9505,"MEAN_ANOMALY":209.1996,"EPHEMERIS_TYPE":0,"CLASSIFICATION_TYPE":"U","NORAD_CAT_ID":51831,"ELEMENT_SET_NO":999,"REV_AT_EPOCH":22440,"BSTAR":0.00075054408,"MEAN_MOTION_DOT":0.00138466,"MEAN_MOTION_DDOT":0},{"OBJECT_NAME":"STARLINK-36610","OBJECT_ID":"2026-020W","EPOCH":"2026-03-08T14:05:18.108096","MEAN_MOTION":15.76441226,"ECCENTRICITY":0.00021156,"INCLINATION":42.9991,"RA_OF_ASC_NODE":148.7377,"ARG_OF_PERICENTER":262.5651,"MEAN_ANOMALY":97.4979,"EPHEMERIS_TYPE":0,"CLASSIFICATION_TYPE":"U","NORAD_CAT_ID":67637,"ELEMENT_SET_NO":999,"REV_AT_EPOCH":591,"BSTAR":0.00093652396,"MEAN_MOTION_DOT":0.00155361,"MEAN_MOTION_DDOT":0}]
