JILIN-1 GAOFEN 03D14    
1 51831U 22019H   26068.22324248  .00138466  00000+0  75054-3 0  9992
2 51831  97.3679 161.4361 0004172 150.9505 209.1996 15.79650746224400
STARLINK-36610          
1 67637U 26020W   26067.58701514  .00155361  00000+0  93652-3 0  9999
2 67637  42.9991 148.7377 0002115 262.5651  97.4979 15.76441226  5916
